NORAD_CAT_ID,OBJECT_NAME,OBJECT_TYPE,EPOCH,MEAN_MOTION,ECCENTRICITY,INCLINATION,RA_OF_ASC_NODE,ARG_OF_PERICENTER,MEAN_ANOMALY,BSTAR,MEAN_MOTION_DOT,MEAN_MOTION_DDOT,TLE_LINE0,TLE_LINE1,TLE_LINE2,SEMIMAJOR_AXIS,PERIOD,APOGEE,PERIGEE,DECAYED
49741.0,STARLINK-3244,PAYLOAD,2023-10-01 11:35:41,15.08838537,0.0001458,53.2164,185.425,87.2968,272.8191,0.00013874,1.921e-05,0.0,0 STARLINK-3244,1 49741U 21115T   23274.48312294  .00001921  00000-0  13874-3 0  9995,2 49741  53.2164 185.4250 0001458  87.2968 272.8191 15.08838537101146,6917.885,95.438,540.758,538.741,0.0
49741.0,STARLINK-3244,PAYLOAD,2023-10-01 17:57:14,15.08840973,0.0001584,53.2166,184.2358,79.6294,280.4877,0.0001924,2.775e-05,0.0,0 STARLINK-3244,1 49741U 21115T   23274.74808502  .00002775  00000-0  19240-3 0  9997,2 49741  53.2166 184.2358 0001584  79.6294 280.4877 15.08840973101188,6917.877,95.437,540.838,538.647,0.0
49741.0,STARLINK-3244,PAYLOAD,2023-10-02 11:26:28,15.08843583,0.0001448,53.2174,180.9631,95.5978,264.5179,0.00027686,4.121e-05,0.0,0 STARLINK-3244,1 49741U 21115T   23275.47672335  .00004121  00000-0  27686-3 0  9991,2 49741  53.2174 180.9631 0001448  95.5978 264.5179 15.08843583102403,6917.869,95.437,540.736,538.733,0.0
49741.0,STARLINK-3244,PAYLOAD,2023-10-02 20:58:47,15.08845598,0.0001472,53.2165,179.1786,103.786,256.3296,0.00030557,4.579e-05,0.0,0 STARLINK-3244,1 49741U 21115T   23275.87416331  .00004579  00000-0  30557-3 0  9995,2 49741  53.2165 179.1786 0001472 103.7860 256.3296 15.08845598101353,6917.863,95.437,540.747,538.71,0.0
49741.0,STARLINK-3244,PAYLOAD,2023-10-03 03:20:20,15.08852594,0.0001611,53.2163,177.988,107.4957,252.6211,0.00042257,6.446e-05,0.0,0 STARLINK-3244,1 49741U 21115T   23276.13912048  .00006446  00000-0  42257-3 0  9996,2 49741  53.2163 177.9880 0001611 107.4957 252.6211 15.08852594101399,6917.842,95.437,540.821,538.592,0.0
49741.0,STARLINK-3244,PAYLOAD,2023-10-03 22:24:58,15.08831155,0.0001102,53.2156,174.4196,112.5374,247.5735,0.00034464,5.2e-05,0.0,0 STARLINK-3244,1 49741U 21115T   23276.93401127  .00005200  00000-0  34464-3 0  9993,2 49741  53.2156 174.4196 0001102 112.5374 247.5735 15.08831155101516,6917.907,95.438,540.535,539.01,0.0
49741.0,STARLINK-3244,PAYLOAD,2023-10-04 03:11:08,15.08826584,0.0001073,53.2162,173.5283,91.4499,268.6616,0.00025986,3.849e-05,0.0,0 STARLINK-3244,1 49741U 21115T   23277.13273533  .00003849  00000-0  25986-3 0  9990,2 49741  53.2162 173.5283 0001073  91.4499 268.6616 15.08826584102658,6917.921,95.438,540.529,539.044,0.0
49741.0,STARLINK-3244,PAYLOAD,2023-10-04 22:15:45,15.08868343,0.0001092,53.2169,169.9615,65.8903,294.2203,0.001268,0.00019965,0.0,0 STARLINK-3244,1 49741U 21115T   23277.92760837  .00019965  00000-0  12680-2 0  9997,2 49741  53.2169 169.9615 0001092  65.8903 294.2203 15.08868343101665,6917.794,95.436,540.414,538.903,0.0
49741.0,STARLINK-3244,PAYLOAD,2023-10-04 23:51:08,15.08884642,0.0001026,53.2162,169.6631,87.2591,272.8518,0.0020423,0.00032405,0.0,0 STARLINK-3244,1 49741U 21115T   23277.99384568  .00032405  00000-0  20423-2 0  9995,2 49741  53.2162 169.6631 0001026  87.2591 272.8518 15.08884642102786,6917.744,95.435,540.319,538.899,0.0
49741.0,STARLINK-3244,PAYLOAD,2023-10-05 09:23:26,15.08886671,0.0001017,53.2158,167.8791,87.1098,273.0011,0.0016636,0.00026321,0.0,0 STARLINK-3244,1 49741U 21115T   23278.39127722  .00026321  00000-0  16636-2 0  9998,2 49741  53.2158 167.8791 0001017  87.1098 273.0011 15.08886671102841,6917.738,95.435,540.306,538.899,0.0
49741.0,STARLINK-3244,PAYLOAD,2023-10-05 20:31:09,15.08838604,0.0001546,53.2161,165.7982,89.7321,270.3848,0.0012001,0.00018862,0.0,0 STARLINK-3244,1 49741U 21115T   23278.85496612  .00018862  00000-0  12001-2 0  9999,2 49741  53.2161 165.7982 0001546  89.7321 270.3848 15.08838604102917,6917.885,95.438,540.819,538.68,0.0
49741.0,STARLINK-3244,PAYLOAD,2023-10-05 22:06:32,15.08836629,0.0001551,53.2161,165.5004,88.3661,271.7509,0.0012542,0.00019727,0.0,0 STARLINK-3244,1 49741U 21115T   23278.92120565  .00019727  00000-0  12542-2 0  9999,2 49741  53.2161 165.5004 0001551  88.3661 271.7509 15.08836629101810,6917.891,95.438,540.829,538.683,0.0
49741.0,STARLINK-3244,PAYLOAD,2023-10-06 09:14:14,15.08826508,0.0001808,53.2152,163.4146,66.7452,293.373,0.0011775,0.00018495,0.0,0 STARLINK-3244,1 49741U 21115T   23279.38489474  .00018495  00000-0  11775-2 0  9995,2 49741  53.2152 163.4146 0001808  66.7452 293.3730 15.08826508102998,6917.922,95.438,541.037,538.536,0.0
49741.0,STARLINK-3244,PAYLOAD,2023-10-06 20:21:57,15.0881367,0.0001977,53.2163,161.3407,89.7992,270.3227,0.00098592,0.00015427,0.0,0 STARLINK-3244,1 49741U 21115T   23279.84858702  .00015427  00000-0  98592-3 0  9995,2 49741  53.2163 161.3407 0001977  89.7992 270.3227 15.08813670103069,6917.961,95.439,541.194,538.458,0.0
49741.0,STARLINK-3244,PAYLOAD,2023-10-06 21:57:20,15.08818216,0.0001726,53.2165,161.0432,96.6453,263.4736,0.00039377,5.981e-05,0.0,0 STARLINK-3244,1 49741U 21115T   23279.91482620  .00005981  00000-0  39377-3 0  9995,2 49741  53.2165 161.0432 0001726  96.6453 263.4736 15.08818216101963,6917.947,95.439,541.006,538.618,0.0
49741.0,STARLINK-3244,PAYLOAD,2023-10-07 01:08:07,15.08826435,0.0001717,53.2163,160.4472,94.0312,266.0876,0.00083273,0.00012985,0.0,0 STARLINK-3244,1 49741U 21115T   23280.04730717  .00012985  00000-0  83273-3 0  9990,2 49741  53.2163 160.4472 0001717  94.0312 266.0876 15.08826435101982,6917.922,95.438,540.975,538.599,0.0
49741.0,STARLINK-3244,PAYLOAD,2023-10-07 20:12:44,15.088776,0.0001617,53.216,156.879,90.6351,269.4827,0.0018693,0.00029618,0.0,0 STARLINK-3244,1 49741U 21115T   23280.84218026  .00029618  00000-0  18693-2 0  9996,2 49741  53.2160 156.8790 0001617  90.6351 269.4827 15.08877600103216,6917.765,95.435,540.749,538.512,0.0
49741.0,STARLINK-3244,PAYLOAD,2023-10-07 21:48:07,15.08881973,0.0001537,53.2158,156.5814,89.3861,270.7307,0.0019203,0.00030441,0.0,0 STARLINK-3244,1 49741U 21115T   23280.90841839  .00030441  00000-0  19203-2 0  9991,2 49741  53.2158 156.5814 0001537  89.3861 270.7307 15.08881973102113,6917.752,95.435,540.68,538.554,0.0
49741.0,STARLINK-3244,PAYLOAD,2023-10-08 08:55:48,15.08871249,0.0001862,53.2159,154.4997,84.2716,275.8488,0.0010491,0.00016462,0.0,0 STARLINK-3244,1 49741U 21115T   23281.37209242  .00016462  00000-0  10491-2 0  9996,2 49741  53.2159 154.4997 0001862  84.2716 275.8488 15.08871249103298,6917.785,95.436,540.938,538.362,0.0
49741.0,STARLINK-3244,PAYLOAD,2023-10-08 18:28:07,15.08868199,0.0001383,53.2153,152.7147,88.2489,271.8662,0.00054829,8.456e-05,0.0,0 STARLINK-3244,1 49741U 21115T   23281.76952736  .00008456  00000-0  54829-3 0  9990,2 49741  53.2153 152.7147 0001383  88.2489 271.8662 15.08868199103356,6917.794,95.436,540.616,538.702,0.0
49741.0,STARLINK-3244,PAYLOAD,2023-10-08 21:38:53,15.08863598,0.0001108,53.2156,152.1203,91.7826,268.3293,0.0017057,0.0002698,0.0,0 STARLINK-3244,1 49741U 21115T   23281.90200741  .00026980  00000-0  17057-2 0  9991,2 49741  53.2156 152.1203 0001108  91.7826 268.3293 15.08863598102263,6917.808,95.436,540.44,538.907,0.0
49741.0,STARLINK-3244,PAYLOAD,2023-10-09 08:46:35,15.08845297,0.0001571,53.2156,150.0384,79.6555,280.4614,0.00078874,0.00012289,0.0,0 STARLINK-3244,1 49741U 21115T   23282.36569116  .00012289  00000-0  78874-3 0  9998,2 49741  53.2156 150.0384 0001571  79.6555 280.4614 15.08845297103447,6917.864,95.437,540.816,538.642,0.0
49741.0,STARLINK-3244,PAYLOAD,2023-10-09 21:29:41,15.08841255,0.0001019,53.2156,147.6592,76.8309,283.2797,0.0017377,0.00027477,0.0,0 STARLINK-3244,1 49741U 21115T   23282.89561481  .00027477  00000-0  17377-2 0  9998,2 49741  53.2156 147.6592 0001019  76.8309 283.2797 15.08841255103525,6917.877,95.437,540.446,539.037,0.0
49741.0,STARLINK-3244,PAYLOAD,2023-10-10 08:37:23,15.08839785,0.0001349,53.2162,145.5766,82.5733,277.5412,0.00067267,0.00010434,0.0,0 STARLINK-3244,1 49741U 21115T   23283.35929737  .00010434  00000-0  67267-3 0  9991,2 49741  53.2162 145.5766 0001349  82.5733 277.5412 15.08839785103595,6917.881,95.438,540.679,538.813,0.0
49741.0,STARLINK-3244,PAYLOAD,2023-10-10 21:20:28,15.08849131,0.0001223,53.2165,143.1984,75.7124,284.4004,0.00058304,9.006e-05,0.0,0 STARLINK-3244,1 49741U 21115T   23283.88921512  .00009006  00000-0  58304-3 0  9997,2 49741  53.2165 143.1984 0001223  75.7124 284.4004 15.08849131102569,6917.852,95.437,540.564,538.871,0.0
49741.0,STARLINK-3244,PAYLOAD,2023-10-11 00:31:14,15.08854491,0.0001194,53.2166,142.6034,80.9291,279.1836,0.00075463,0.00011747,0.0,0 STARLINK-3244,1 49741U 21115T   23284.02169316  .00011747  00000-0  75463-3 0  9990,2 49741  53.2166 142.6034 0001194  80.9291 279.1836 15.08854491102581,6917.836,95.437,540.527,538.875,0.0
49741.0,STARLINK-3244,PAYLOAD,2023-10-11 21:11:15,15.08843015,0.0001189,53.2166,138.7333,91.8212,268.2916,0.00032023,4.813e-05,0.0,0 STARLINK-3244,1 49741U 21115T   23284.88281721  .00004813  00000-0  32023-3 0  9990,2 49741  53.2166 138.7333 0001189  91.8212 268.2916 15.08843015103823,6917.871,95.437,540.559,538.914,0.0
49741.0,STARLINK-3244,PAYLOAD,2023-10-12 00:22:01,15.08846247,0.0001238,53.2163,138.143,86.249,273.8644,0.00038905,5.91e-05,0.0,0 STARLINK-3244,1 49741U 21115T   23285.01529751  .00005910  00000-0  38905-3 0  9998,2 49741  53.2163 138.1430 0001238  86.2490 273.8644 15.08846247102732,6917.861,95.437,540.583,538.87,0.0
49741.0,STARLINK-3244,PAYLOAD,2023-10-12 21:02:02,15.08857749,0.0001181,53.2161,134.2771,86.2753,273.8374,0.00070116,0.00010894,0.0,0 STARLINK-3244,1 49741U 21115T   23285.87641400  .00010894  00000-0  70116-3 0  9995,2 49741  53.2161 134.2771 0001181  86.2753 273.8374 15.08857749102867,6917.826,95.436,540.508,538.874,0.0
49741.0,STARLINK-3244,PAYLOAD,2023-10-13 06:34:20,15.08854216,0.0001061,53.2158,132.4934,82.2843,277.827,0.0003886,5.904e-05,0.0,0 STARLINK-3244,1 49741U 21115T   23286.27385150  .00005904  00000-0  38860-3 0  9993,2 49741  53.2158 132.4934 0001061  82.2843 277.8270 15.08854216104033,6917.837,95.437,540.436,538.968,0.0
